OBJECT_NAME,OBJECT_ID,EPOCH,MEAN_MOTION,ECCENTRICITY,INCLINATION,RA_OF_ASC_NODE,ARG_OF_PERICENTER,MEAN_ANOMALY,EPHEMERIS_TYPE,CLASSIFICATION_TYPE,NORAD_CAT_ID,ELEMENT_SET_NO,REV_AT_EPOCH,BSTAR,MEAN_MOTION_DOT,MEAN_MOTION_DDOT
PROBA-1,2001-049B,2026-07-18T20:42:57.419712,15.07621361,.0055343,97.9601,209.5045,17.5610,342.7514,0,U,26958,999,34839,.37102E-4,.512E-5,0
CUTE-1 (CO-55),2003-031E,2026-07-18T07:08:10.116384,14.24352673,.00108679,98.6744,207.4657,94.6885,265.5536,0,U,27844,999,19610,.74435316E-4,.128E-5,0
CUBESAT XI-IV (CO-57),2003-031J,2026-07-17T22:48:02.109024,14.23635431,.00106323,98.6776,206.8106,112.1739,248.0569,0,U,27848,999,19575,.66203101E-4,.107E-5,0
APRIZESAT 4,2009-041D,2026-07-18T17:56:06.957600,14.83916474,.0042457,98.1401,275.6954,217.7364,142.0870,0,U,35684,999,91604,.41061E-4,.287E-5,0
APRIZESAT 3,2009-041F,2026-07-18T09:29:29.001984,14.96315172,.00607195,98.2106,354.1225,325.2284,34.4974,0,U,35686,999,92104,.34575461E-4,.335E-5,0
PROBA-2,2009-059B,2026-07-18T17:44:59.234208,14.54874419,.0013259,98.2462,22.6567,177.7124,182.4136,0,U,36037,999,88611,.23798E-4,.57E-6,0
APRIZESAT 5,2011-044E,2026-07-18T18:13:25.536576,14.81130594,.0050683,98.2447,133.6963,260.9074,98.6400,0,U,37792,999,80346,.49354E-4,.332E-5,0
APRIZESAT 6,2011-044F,2026-07-18T17:13:32.227968,14.76959593,.0042763,98.2332,110.8582,346.9673,75.3400,0,U,37793,999,80180,.52459E-4,.318E-5,0
PROBA-V,2013-021A,2026-07-18T19:37:10.932960,14.23603688,.0005121,98.3608,176.8662,51.5559,308.6080,0,U,39159,999,68561,.21296E-4,.7E-7,0
APRIZESAT 7,2013-066A,2026-07-18T19:37:18.861888,14.91623631,.0037303,97.7723,152.5866,105.7785,254.7552,0,U,39416,999,68594,.73567E-4,.691E-5,0
APRIZESAT 8,2013-066K,2026-07-18T19:42:20.106720,14.87699337,.0045816,97.8230,146.8510,179.9033,180.2201,0,U,39425,999,68437,.45351E-4,.364E-5,0
BUGSAT-1 (TITA),2014-033E,2026-07-18T20:31:54.050016,15.15902533,.0028996,98.0431,294.2639,74.0281,286.4141,0,U,40014,999,66063,.11464E-3,.2141E-4,0
SAUDISAT 4,2014-033G,2026-07-18T20:04:45.689088,14.79577610,.0043963,97.7623,344.8842,332.0834,27.8020,0,U,40016,999,65075,.35362E-4,.216E-5,0
APRIZESAT 9,2014-033J,2026-07-18T07:02:42.707040,14.74254835,.00675024,97.9099,331.7382,100.1927,260.6904,0,U,40018,999,64814,.50115052E-4,.291E-5,0
APRIZESAT 10,2014-033K,2026-07-18T19:51:16.572096,14.70913447,.007902,97.9686,326.0872,171.7689,188.4835,0,U,40019,999,64690,.54342E-4,.296E-5,0
TECHDEMOSAT-1 (TDS-1),2014-037H,2026-07-18T05:33:03.468096,15.13703160,.00072323,98.3830,194.5338,149.4673,210.6978,0,U,40076,999,65292,.19435845E-3,.3422E-4,0
TECHNOSAT,2017-042E,2026-07-18T16:43:06.322080,15.05121620,.0017091,97.4323,356.1645,352.0472,8.0481,0,U,42829,999,49144,.91546E-4,.1247E-4,0
FLYING LAPTOP,2017-042G,2026-07-18T20:17:57.324768,15.01328064,.0019537,97.4827,354.1910,20.8806,339.3212,0,U,42831,999,49120,.17183E-3,.2162E-4,0
HAWK-A,2018-099H,2026-07-18T17:11:13.646688,15.24990780,.0035084,97.3892,251.5450,171.6437,188.5393,0,U,43765,999,41790,.1403E-3,.3486E-4,0
HAWK-B,2018-099AN,2026-07-18T17:02:13.308000,15.23137637,.0031733,97.3943,250.8871,189.6136,170.4498,0,U,43794,999,41783,.12918E-3,.3019E-4,0
HAWK-C,2018-099AT,2026-07-18T19:36:30.476160,15.28524202,.0040681,97.3867,252.7143,171.0810,189.1162,0,U,43799,999,41874,.16122E-3,.4507E-4,0
SALSAT,2020-068K,2026-07-18T00:21:03.770208,15.30195257,.00094957,97.8861,203.9671,182.8082,177.3106,0,U,46495,999,32007,.14176866E-3,.4061E-4,0
HAWK-2C,2021-006CT,2026-07-18T20:05:32.815968,15.35015243,.0008684,97.2259,243.5203,90.6516,269.5723,0,U,47502,999,30435,.10546E-3,.3507E-4,0
HAWK-2A,2021-006CW,2026-07-18T13:53:11.821920,15.35034159,.0008241,97.2300,243.9628,94.6100,265.6085,0,U,47505,999,30431,.10312E-3,.343E-4,0
HAWK-2B,2021-006CZ,2026-07-18T19:58:54.829056,15.35166052,.0008766,97.2171,242.4940,92.3093,267.9155,0,U,47508,999,30435,.11954E-3,.4006E-4,0
HAWK-3B,2021-059BE,2026-07-18T02:12:39.565440,15.72043913,.00047312,97.6632,38.7819,187.5925,172.5267,0,U,48931,999,28270,.23995635E-3,.31299E-3,0
HAWK-3C,2021-059BX,2026-07-18T02:12:11.990016,15.72043790,.00050371,97.6749,44.5200,187.8290,172.2895,0,U,48948,999,28270,.22506655E-3,.29344E-3,0
HAWK-3A,2021-059CG,2026-07-18T20:31:57.722016,15.72088161,.0004982,97.6697,42.5394,187.6639,172.4548,0,U,48957,999,28282,.24015E-3,.31385E-3,0
HAWK-5C,2022-057Y,2026-07-18T19:57:39.197952,15.52404760,.0002476,97.6627,1.5702,329.0147,31.0959,0,U,52754,999,23125,.17136E-3,.10355E-3,0
HAWK-5B,2022-057AA,2026-07-18T02:56:22.442208,15.52385437,.0003199,97.6638,359.1680,318.5187,41.5822,0,U,52756,999,23114,.17264586E-3,.10427E-3,0
